OBJECT_NAME,OBJECT_ID,EPOCH,MEAN_MOTION,ECCENTRICITY,INCLINATION,RA_OF_ASC_NODE,ARG_OF_PERICENTER,MEAN_ANOMALY,EPHEMERIS_TYPE,CLASSIFICATION_TYPE,NORAD_CAT_ID,ELEMENT_SET_NO,REV_AT_EPOCH,BSTAR,MEAN_MOTION_DOT,MEAN_MOTION_DDOT
SAUDISAT 2,2004-025F,2026-07-20T23:04:16.491936,14.56700247,.00244289,98.5524,202.8186,190.1819,169.8887,0,U,28371,999,17066,.42203396E-4,.14E-5,0
COSMOS 2407,2004-028A,2026-07-20T22:54:13.490784,13.76336825,.00397279,82.9584,49.8198,156.0809,320.4956,0,U,28380,999,10452,.15240623E-4,.31E-6,0
COSMOS 2414,2005-002A,2026-07-20T21:57:26.241984,13.87928717,.00389724,82.9493,18.1270,231.9648,127.7996,0,U,28521,999,8849,.28992644E-4,.5E-6,0
INMARSAT 4-F1,2005-009A,2026-07-20T20:49:04.313856,1.00274022,.00026784,5.2136,42.7963,74.7671,311.4360,0,U,28628,999,7801,0,.3E-6,0
SJ-7,2005-024A,2026-07-20T19:44:17.964096,15.21982665,.001361,97.7275,232.8395,274.6859,85.2822,0,U,28737,999,15314,.22867372E-3,.5156E-4,0
CUBESAT XI-V,2005-043F,2026-07-20T16:41:18.279744,14.72710537,.00153581,98.3023,358.0290,99.2356,261.0589,0,U,28895,999,10668,.12046578E-3,.717E-5,0
HINODE (SOLAR-B),2006-041A,2026-07-20T21:50:40.645824,14.68662680,.00175119,98.0548,217.5659,176.1800,183.9542,0,U,29479,999,5982,.73517273E-4,.379E-5,0
SHIJIAN-6 02B (SJ-6 02B),2006-046B,2026-07-21T00:03:10.512864,15.01442791,.00126648,97.7141,230.8510,315.2475,44.7727,0,U,29506,999,7581,.35142409E-4,.393E-5,0
DMSP 5D-3 F17 (USA 191),2006-050A,2026-07-20T23:16:16.933152,14.14996434,.00093946,98.7390,207.8500,325.5407,34.5156,0,U,29522,999,1720,.17280105E-4,-.1E-6,0
LAPAN-TUBSAT,2007-001A,2026-07-20T23:46:04.586304,14.85978832,.00136396,98.1363,201.9792,77.1325,283.1412,0,U,29709,999,5617,-.1462335E-4,-.186E-5,0
HAIYANG-1B,2007-010A,2026-07-20T21:59:16.675872,14.31034308,.00148006,98.3520,182.4571,100.2392,260.0461,0,U,31113,999,546,.38312719E-4,.59E-6,0
COSMO-SKYMED 2,2007-059A,2026-07-20T21:59:30.245856,14.82153355,.00014683,97.8897,25.0267,93.9065,266.2316,0,U,32376,999,700,.3386696E-4,.217E-5,0
CARTOSAT-2A,2008-021A,2026-07-20T22:27:00.732960,14.79278341,.00120074,97.7612,249.4892,9.4733,350.6703,0,U,32783,999,98379,-.25618412E-4,-.241E-5,0
CUTE-1.7+APD II (CO-65),2008-021C,2026-07-20T22:06:15.078240,15.09730364,.00068635,97.8299,184.0527,275.3891,84.6554,0,U,32785,999,99028,.18484197E-3,.2914E-4,0
SEEDS II (CO-66),2008-021J,2026-07-20T22:34:04.220832,15.33789824,.00036969,97.7537,201.4796,144.6807,215.4681,0,U,32791,999,99246,.41244498E-3,.13404E-3,0
YUBILEINY (RS30),2008-025A,2026-07-20T21:34:55.897248,12.43181117,.00187705,82.5071,334.4691,235.8235,124.1066,0,U,32953,999,82388,.69253264E-3,.106E-5,0
FENGYUN 3A,2008-026A,2026-07-20T19:24:45.466848,14.19577262,.00094542,98.6886,142.0143,37.1178,323.0651,0,U,32958,999,94017,.37299227E-4,.35E-6,0
HUANJING 1A (HJ-1A),2008-041A,2026-07-20T22:43:08.442336,14.84056322,.00199438,97.6709,186.4843,31.9995,328.2427,0,U,33320,999,96341,.48166753E-4,.351E-5,0
HUANJING 1B (HJ-1B),2008-041B,2026-07-20T22:20:57.846912,14.83372951,.00379479,97.6545,189.5384,73.3875,287.1501,0,U,33321,999,96341,.12312489E-3,.97E-5,0
SHIJIAN-6 03A (SJ-6 03A),2008-053A,2026-07-20T22:41:46.383936,15.17447382,.000945,97.8402,236.4441,252.5598,107.4602,0,U,33408,999,96808,.13351542E-3,.2601E-4,0
SHIJIAN-6 03B (SJ-6 03B),2008-053B,2026-07-20T22:56:41.988192,15.04379047,.00178453,97.8561,222.4077,289.0845,70.8447,0,U,33409,999,96782,-.1950325E-5,-.93E-6,0
